{"type": "FeatureCollection", "features": [{"type": "Feature", "properties": {"norad_id": 26766, "name": "INTELSAT 10 (IS-10)", "group": "intelsat", "lat": -8.653222823942125, "lon": -26.752599653974496, "alt_km": 36102.36879472731, "timestamp": "2025-12-19T08:58:49.004616+00:00", "meta": {"OBJECT_NAME": "INTELSAT 10 (IS-10)", "OBJECT_ID": "2001-019A", "EPOCH": "2025-12-18T15:52:21.542016", "MEAN_MOTION": 0.99076062, "ECCENTRICITY": 0.00076782, "INCLINATION": 8.6429, "RA_OF_ASC_NODE": 61.0978, "ARG_OF_PERICENTER": 228.2333, "MEAN_ANOMALY": 149.5829, "EPHEMERIS_TYPE": 0, "CLASSIFICATION_TYPE": "U", "NORAD_CAT_ID": 26766, "ELEMENT_SET_NO": 999, "REV_AT_EPOCH": 4379, "BSTAR": 0, "MEAN_MOTION_DOT": -1.61e-06, "MEAN_MOTION_DDOT": 0}, "tle": {"line1": "1 26766U 01019A   25352.66136044 -.00000161  00000+0  00000+0 0  9992", "line2": "2 26766   8.6429  61.0978 0007678 228.2333 149.5829  0.99076062 43790"}}, "geometry": {"type": "Point", "coordinates": [-26.752599653974496, -8.653222823942125]}}, {"type": "Feature", "properties": {"norad_id": 26900, "name": "INTELSAT 902 (IS-902)", "group": "intelsat", "lat": 5.601488311220283, "lon": 172.7890302186352, "alt_km": 35786.354491594124, "timestamp": "2025-12-19T08:58:49.004639+00:00", "meta": {"OBJECT_NAME": "INTELSAT 902 (IS-902)", "OBJECT_ID": "2001-039A", "EPOCH": "2025-12-15T13:09:02.081664", "MEAN_MOTION": 1.0027087, "ECCENTRICITY": 0.00045028, "INCLINATION": 5.6536, "RA_OF_ASC_NODE": 74.0372, "ARG_OF_PERICENTER": 189.6359, "MEAN_ANOMALY": 327.9329, "EPHEMERIS_TYPE": 0, "CLASSIFICATION_TYPE": "U", "NORAD_CAT_ID": 26900, "ELEMENT_SET_NO": 999, "REV_AT_EPOCH": 8885, "BSTAR": 0, "MEAN_MOTION_DOT": -2.65e-06, "MEAN_MOTION_DDOT": 0}, "tle": {"line1": "1 26900U 01039A   25349.54794076 -.00000265  00000+0  00000+0 0  9997", "line2": "2 26900   5.6536  74.0372 0004502 189.6359 327.9329  1.00270870 88858"}}, "geometry": {"type": "Point", "coordinates": [172.7890302186352, 5.601488311220283]}}, {"type": "Feature", "properties": {"norad_id": 27380, "name": "INTELSAT 904 (IS-904)", "group": "intelsat", "lat": 5.594426404763525, "lon": -168.42981662422983, "alt_km": 35789.68171063316, "timestamp": "2025-12-19T08:58:49.004654+00:00", "meta": {"OBJECT_NAME": "INTELSAT 904 (IS-904)", "OBJECT_ID": "2002-007A", "EPOCH": "2025-12-18T14:51:25.201152", "MEAN_MOTION": 1.00271527, "ECCENTRICITY": 0.00017067, "INCLINATION": 6.4685, "RA_OF_ASC_NODE": 71.3651, "ARG_OF_PERICENTER": 246.0058, "MEAN_ANOMALY": 321.4637, "EPHEMERIS_TYPE": 0, "CLASSIFICATION_TYPE": "U", "NORAD_CAT_ID": 27380, "ELEMENT_SET_NO": 999, "REV_AT_EPOCH": 4995, "BSTAR": 0, "MEAN_MOTION_DOT": -2.06e-06, "MEAN_MOTION_DDOT": 0}, "tle": {"line1": "1 27380U 02007A   25352.61904168 -.00000206  00000+0  00000+0 0  9998", "line2": "2 27380   6.4685  71.3651 0001706 246.0058 321.4637  1.00271527 49951"}}, "geometry": {"type": "Point", "coordinates": [-168.42981662422983, 5.594426404763525]}}, {"type": "Feature", "properties": {"norad_id": 27426, "name": "DIRECTV 5 (TEMPO 1)", "group": "intelsat", "lat": 2.5720162277014462, "lon": 112.72558179076628, "alt_km": 35799.760333424296, "timestamp": "2025-12-19T08:58:49.004667+00:00", "meta": {"OBJECT_NAME": "DIRECTV 5 (TEMPO 1)", "OBJECT_ID": "2002-023A", "EPOCH": "2025-12-18T16:11:47.503968", "MEAN_MOTION": 1.00272743, "ECCENTRICITY": 0.00034103, "INCLINATION": 4.4165, "RA_OF_ASC_NODE": 77.584, "ARG_OF_PERICENTER": 207.0949, "MEAN_ANOMALY": 295.6907, "EPHEMERIS_TYPE": 0, "CLASSIFICATION_TYPE": "U", "NORAD_CAT_ID": 27426, "ELEMENT_SET_NO": 999, "REV_AT_EPOCH": 8631, "BSTAR": 0, "MEAN_MOTION_DOT": -3.6e-07, "MEAN_MOTION_DDOT": 0}, "tle": {"line1": "1 27426U 02023A   25352.67485537 -.00000036  00000+0  00000+0 0  9998", "line2": "2 27426   4.4165  77.5840 0003410 207.0949 295.6907  1.00272743 86315"}}, "geometry": {"type": "Point", "coordinates": [112.72558179076628, 2.5720162277014462]}}, {"type": "Feature", "properties": {"norad_id": 27438, "name": "INTELSAT 905 (IS-905)", "group": "intelsat", "lat": 1.5192618459405083, "lon": 85.6344685358549, "alt_km": 35796.88130085108, "timestamp": "2025-12-19T08:58:49.004680+00:00", "meta": {"OBJECT_NAME": "INTELSAT 905 (IS-905)", "OBJECT_ID": "2002-027A", "EPOCH": "2025-12-18T20:04:07.110624", "MEAN_MOTION": 1.00272079, "ECCENTRICITY": 0.00026396, "INCLINATION": 6.3, "RA_OF_ASC_NODE": 71.9858, "ARG_OF_PERICENTER": 200.0074, "MEAN_ANOMALY": 339.5183, "EPHEMERIS_TYPE": 0, "CLASSIFICATION_TYPE": "U", "NORAD_CAT_ID": 27438, "ELEMENT_SET_NO": 999, "REV_AT_EPOCH": 4955, "BSTAR": 0, "MEAN_MOTION_DOT": 1.13e-06, "MEAN_MOTION_DDOT": 0}, "tle": {"line1": "1 27438U 02027A   25352.83619341  .00000113  00000+0  00000+0 0  9990", "line2": "2 27438   6.3000  71.9858 0002639 200.0074 339.5183  1.00272079 49559"}}, "geometry": {"type": "Point", "coordinates": [85.6344685358549, 1.5192618459405083]}}, {"type": "Feature", "properties": {"norad_id": 27445, "name": "GALAXY 3C (G-3C)", "group": "intelsat", "lat": 2.442652610358747, "lon": 128.00721028394514, "alt_km": 35781.573884735124, "timestamp": "2025-12-19T08:58:49.004692+00:00", "meta": {"OBJECT_NAME": "GALAXY 3C (G-3C)", "OBJECT_ID": "2002-030A", "EPOCH": "2025-12-18T19:41:32.858016", "MEAN_MOTION": 1.00271925, "ECCENTRICITY": 0.00011454, "INCLINATION": 3.2783, "RA_OF_ASC_NODE": 80.4458, "ARG_OF_PERICENTER": 77.4662, "MEAN_ANOMALY": 130.2917, "EPHEMERIS_TYPE": 0, "CLASSIFICATION_TYPE": "U", "NORAD_CAT_ID": 27445, "ELEMENT_SET_NO": 999, "REV_AT_EPOCH": 4468, "BSTAR": 0, "MEAN_MOTION_DOT": -1.3e-06, "MEAN_MOTION_DDOT": 0}, "tle": {"line1": "1 27445U 02030A   25352.82051919 -.00000130  00000+0  00000+0 0  9992", "line2": "2 27445   3.2783  80.4458 0001145  77.4662 130.2917  1.00271925 44681"}}, "geometry": {"type": "Point", "coordinates": [128.00721028394514, 2.442652610358747]}}, {"type": "Feature", "properties": {"norad_id": 27513, "name": "INTELSAT 906 (IS-906)", "group": "intelsat", "lat": -2.8494760584766268, "lon": -73.04061233181133, "alt_km": 35760.36236638783, "timestamp": "2025-12-19T08:58:49.004704+00:00", "meta": {"OBJECT_NAME": "INTELSAT 906 (IS-906)", "OBJECT_ID": "2002-041A", "EPOCH": "2025-12-18T20:13:38.922240", "MEAN_MOTION": 1.00272534, "ECCENTRICITY": 0.0006302, "INCLINATION": 5.3449, "RA_OF_ASC_NODE": 75.1597, "ARG_OF_PERICENTER": 197.4731, "MEAN_ANOMALY": 182.6056, "EPHEMERIS_TYPE": 0, "CLASSIFICATION_TYPE": "U", "NORAD_CAT_ID": 27513, "ELEMENT_SET_NO": 999, "REV_AT_EPOCH": 8522, "BSTAR": 0, "MEAN_MOTION_DOT": 3.3e-07, "MEAN_MOTION_DDOT": 0}, "tle": {"line1": "1 27513U 02041A   25352.84281160  .00000033  00000+0  00000+0 0  9996", "line2": "2 27513   5.3449  75.1597 0006302 197.4731 182.6056  1.00272534 85221"}}, "geometry": {"type": "Point", "coordinates": [-73.04061233181133, -2.8494760584766268]}}, {"type": "Feature", "properties": {"norad_id": 27954, "name": "GALAXY 13 (HORIZONS-1)", "group": "intelsat", "lat": -0.19460605150976484, "lon": 72.91715143493565, "alt_km": 35797.02394585989, "timestamp": "2025-12-19T08:58:49.004717+00:00", "meta": {"OBJECT_NAME": "GALAXY 13 (HORIZONS-1)", "OBJECT_ID": "2003-044A", "EPOCH": "2025-12-18T17:43:08.755392", "MEAN_MOTION": 1.00269349, "ECCENTRICITY": 0.00024576, "INCLINATION": 0.9518, "RA_OF_ASC_NODE": 86.3931, "ARG_OF_PERICENTER": 174.6502, "MEAN_ANOMALY": 302.3385, "EPHEMERIS_TYPE": 0, "CLASSIFICATION_TYPE": "U", "NORAD_CAT_ID": 27954, "ELEMENT_SET_NO": 999, "REV_AT_EPOCH": 4476, "BSTAR": 0, "MEAN_MOTION_DOT": 1.57e-06, "MEAN_MOTION_DDOT": 0}, "tle": {"line1": "1 27954U 03044A   25352.73829578  .00000157  00000+0  00000+0 0  9995", "line2": "2 27954   0.9518  86.3931 0002457 174.6502 302.3385  1.00269349 44764"}}, "geometry": {"type": "Point", "coordinates": [72.91715143493565, -0.19460605150976484]}}, {"type": "Feature", "properties": {"norad_id": 28358, "name": "INTELSAT 10-02", "group": "intelsat", "lat": -0.00655364472223657, "lon": -138.05022751887222, "alt_km": 35785.118435353805, "timestamp": "2025-12-19T08:58:49.004729+00:00", "meta": {"OBJECT_NAME": "INTELSAT 10-02", "OBJECT_ID": "2004-022A", "EPOCH": "2025-12-18T20:08:22.788096", "MEAN_MOTION": 1.00272833, "ECCENTRICITY": 8.965e-05, "INCLINATION": 0.0192, "RA_OF_ASC_NODE": 66.3622, "ARG_OF_PERICENTER": 235.9772, "MEAN_ANOMALY": 86.4926, "EPHEMERIS_TYPE": 0, "CLASSIFICATION_TYPE": "U", "NORAD_CAT_ID": 28358, "ELEMENT_SET_NO": 999, "REV_AT_EPOCH": 7874, "BSTAR": 0, "MEAN_MOTION_DOT": 1.5e-07, "MEAN_MOTION_DDOT": 0}, "tle": {"line1": "1 28358U 04022A   25352.83915264  .00000015  00000+0  00000+0 0  9993", "line2": "2 28358   0.0192  66.3622 0000896 235.9772  86.4926  1.00272833 78740"}}, "geometry": {"type": "Point", "coordinates": [-138.05022751887222, -0.00655364472223657]}}, {"type": "Feature", "properties": {"norad_id": 28626, "name": "XM-3 (RHYTHM)", "group": "intelsat", "lat": -0.1505807803905669, "lon": -54.32211469215751, "alt_km": 36156.164932089356, "timestamp": "2025-12-19T08:58:49.004741+00:00", "meta": {"OBJECT_NAME": "XM-3 (RHYTHM)", "OBJECT_ID": "2005-008A", "EPOCH": "2025-12-18T22:15:33.109056", "MEAN_MOTION": 0.98950209, "ECCENTRICITY": 0.00018618, "INCLINATION": 0.1901, "RA_OF_ASC_NODE": 81.9252, "ARG_OF_PERICENTER": 278.2216, "MEAN_ANOMALY": 146.4282, "EPHEMERIS_TYPE": 0, "CLASSIFICATION_TYPE": "U", "NORAD_CAT_ID": 28626, "ELEMENT_SET_NO": 999, "REV_AT_EPOCH": 4081, "BSTAR": 0, "MEAN_MOTION_DOT": 4.3e-07, "MEAN_MOTION_DDOT": 0}, "tle": {"line1": "1 28626U 05008A   25352.92746654  .00000043  00000+0  00000+0 0  9992", "line2": "2 28626   0.1901  81.9252 0001861 278.2216 146.4282  0.98950209 40810"}}, "geometry": {"type": "Point", "coordinates": [-54.32211469215751, -0.1505807803905669]}}]}